start=new Date('2021-11-12T00:00:00.000Z').valueOf();
sats=[{"SITE":"AFETR","RA_OF_ASC_NODE":"29.9764","MEAN_MOTION":"15.06420182","REF_FRAME":"TEME","ARG_OF_PERICENTER":"72.3080","MEAN_MOTION_DDOT":"0.0000000000000","DECAY_DATE":null,"OBJECT_NAME":"STARLINK-2222","ECCENTRICITY":"0.00012460","CENTER_NAME":"EARTH","MEAN_MOTION_DOT":"0.00005316","EPOCH":"2021-11-11T16:46:14.906496","RCS_SIZE":"LARGE","TIME_SYSTEM":"UTC","INCLINATION":"53.0558","PERIOD":"95.591","APOAPSIS":"548.015","REV_AT_EPOCH":"2707","ELEMENT_SET_NO":"999","SEMIMAJOR_AXIS":"6925.287","GP_ID":"189528561","TLE_LINE1":"1 48572U 21041V   21315.69878364  .00005316  00000-0  37529-3 0  9991","OBJECT_TYPE":"PAYLOAD","TLE_LINE2":"2 48572  53.0558  29.9764 0001246  72.3080 287.8045 15.06420182 27073","PERIAPSIS":"546.289","MEAN_ELEMENT_THEORY":"SGP4","BSTAR":"0.00037529000000","COUNTRY_CODE":"US","LAUNCH_DATE":"2021-05-15","CLASSIFICATION_TYPE":"U","FILE":"3212485","NORAD_CAT_ID":"48572","MEAN_ANOMALY":"287.8045","EPHEMERIS_TYPE":"0","OBJECT_ID":"2021-041V"},{"OBJECT_NAME":"STARLINK-2224","DECAY_DATE":null,"ECCENTRICITY":"0.00014220","RA_OF_ASC_NODE":"20.0780","SITE":"AFETR","ARG_OF_PERICENTER":"70.3224","MEAN_MOTION_DDOT":"0.0000000000000","MEAN_MOTION":"15.06411339","REF_FRAME":"TEME","CENTER_NAME":"EARTH","MEAN_MOTION_DOT":"-0.00001264","INCLINATION":"53.0555","TIME_SYSTEM":"UTC","RCS_SIZE":"LARGE","EPOCH":"2021-11-11T16:15:42.542208","SEMIMAJOR_AXIS":"6925.314","ELEMENT_SET_NO":"999","APOAPSIS":"548.164","REV_AT_EPOCH":"2720","PERIOD":"95.591","OBJECT_TYPE":"PAYLOAD","TLE_LINE1":"1 48573U 21041W   21315.67757572 -.00001264  00000-0 -65920-4 0  9994","GP_ID":"189527977","COUNTRY_CODE":"US","PERIAPSIS":"546.194","TLE_LINE2":"2 48573  53.0555  20.0780 0001422  70.3224 289.7919 15.06411339 27205","BSTAR":"-0.00006592000000","MEAN_ELEMENT_THEORY":"SGP4","LAUNCH_DATE":"2021-05-15","EPHEMERIS_TYPE":"0","OBJECT_ID":"2021-041W","CLASSIFICATION_TYPE":"U","NORAD_CAT_ID":"48573","MEAN_ANOMALY":"289.7919","FILE":"3212485"},{"MEAN_MOTION_DDOT":"0.0000000000000","ARG_OF_PERICENTER":"67.6124","MEAN_MOTION":"15.06373397","REF_FRAME":"TEME","RA_OF_ASC_NODE":"349.0803","SITE":"AFETR","ECCENTRICITY":"0.00014630","DECAY_DATE":null,"OBJECT_NAME":"STARLINK-2225","MEAN_MOTION_DOT":"0.00033342","CENTER_NAME":"EARTH","RCS_SIZE":"LARGE","EPOCH":"2021-11-11T22:00:00.999936","INCLINATION":"53.0428","TIME_SYSTEM":"UTC","PERIOD":"95.594","ELEMENT_SET_NO":"999","SEMIMAJOR_AXIS":"6925.430","APOAPSIS":"548.308","REV_AT_EPOCH":"361","TLE_LINE1":"1 48574U 21041X   21315.91667824  .00033342  00000-0  22483-2 0  9997","GP_ID":"189528796","OBJECT_TYPE":"PAYLOAD","BSTAR":"0.00224830000000","MEAN_ELEMENT_THEORY":"SGP4","PERIAPSIS":"546.282","TLE_LINE2":"2 48574  53.0428 349.0803 0001463  67.6124   0.0223 15.06373397  3610","COUNTRY_CODE":"US","LAUNCH_DATE":"2021-05-15","MEAN_ANOMALY":"0.0223","NORAD_CAT_ID":"48574","FILE":"3212485","CLASSIFICATION_TYPE":"U","OBJECT_ID":"2021-041X","EPHEMERIS_TYPE":"0"},{"LAUNCH_DATE":"2021-05-15","FILE":"3212485","MEAN_ANOMALY":"322.0736","NORAD_CAT_ID":"48575","CLASSIFICATION_TYPE":"U","OBJECT_ID":"2021-041Y","EPHEMERIS_TYPE":"0","GP_ID":"189528094","TLE_LINE1":"1 48575U 21041Y   21315.91667824  .00023937  00000-0  55810-3 0  9998","OBJECT_TYPE":"PAYLOAD","MEAN_ELEMENT_THEORY":"SGP4","BSTAR":"0.00055810000000","TLE_LINE2":"2 48575  53.0534 348.1881 0002856  18.3341 322.0736 15.42139836  3632","PERIAPSIS":"437.850","COUNTRY_CODE":"US","EPOCH":"2021-11-11T22:00:00.999936","RCS_SIZE":"LARGE","INCLINATION":"53.0534","TIME_SYSTEM":"UTC","PERIOD":"93.377","REV_AT_EPOCH":"363","APOAPSIS":"441.744","ELEMENT_SET_NO":"999","SEMIMAJOR_AXIS":"6817.932","MEAN_MOTION":"15.42139836","REF_FRAME":"TEME","MEAN_MOTION_DDOT":"0.0000000000000","ARG_OF_PERICENTER":"18.3341","RA_OF_ASC_NODE":"348.1881","SITE":"AFETR","OBJECT_NAME":"STARLINK-2227","DECAY_DATE":null,"ECCENTRICITY":"0.00028560","MEAN_MOTION_DOT":"0.00023937","CENTER_NAME":"EARTH"},{"OBJECT_NAME":"STARLINK-2228","DECAY_DATE":null,"ECCENTRICITY":"0.00016540","SITE":"AFETR","RA_OF_ASC_NODE":"353.6150","MEAN_MOTION":"15.04746225","REF_FRAME":"TEME","ARG_OF_PERICENTER":"41.3649","MEAN_MOTION_DDOT":"0.0000000000000","CENTER_NAME":"EARTH","MEAN_MOTION_DOT":"0.00026527","TIME_SYSTEM":"UTC","INCLINATION":"53.0706","EPOCH":"2021-11-11T22:00:00.999936","RCS_SIZE":"LARGE","REV_AT_EPOCH":"359","APOAPSIS":"553.433","SEMIMAJOR_AXIS":"6930.422","ELEMENT_SET_NO":"999","PERIOD":"95.697","OBJECT_TYPE":"PAYLOAD","GP_ID":"189528212","TLE_LINE1":"1 48576U 21041Z   21315.91667824  .00026527  00000-0  18743-2 0  9990","COUNTRY_CODE":"US","TLE_LINE2":"2 48576  53.0706 353.6150 0001654  41.3649  41.0805 15.04746225  3590","PERIAPSIS":"551.140","MEAN_ELEMENT_THEORY":"SGP4","BSTAR":"0.00187430000000","LAUNCH_DATE":"2021-05-15","EPHEMERIS_TYPE":"0","OBJECT_ID":"2021-041Z","CLASSIFICATION_TYPE":"U","FILE":"3212485","NORAD_CAT_ID":"48576","MEAN_ANOMALY":"41.0805"},{"NORAD_CAT_ID":"48577","MEAN_ANOMALY":"292.6278","FILE":"3212485","CLASSIFICATION_TYPE":"U","OBJECT_ID":"2021-041AA","EPHEMERIS_TYPE":"0","LAUNCH_DATE":"2021-05-15","BSTAR":"0.00005006600000","MEAN_ELEMENT_THEORY":"SGP4","PERIAPSIS":"545.979","TLE_LINE2":"2 48577  53.0544  20.4151 0001768  67.4898 292.6278 15.06403363 27197","COUNTRY_CODE":"US","TLE_LINE1":"1 48577U 21041AA  21315.60387496  .00000464  00000-0  50066-4 0  9999","GP_ID":"189528327","OBJECT_TYPE":"PAYLOAD","PERIOD":"95.592","ELEMENT_SET_NO":"999","SEMIMAJOR_AXIS":"6925.338","APOAPSIS":"548.428","REV_AT_EPOCH":"2719","RCS_SIZE":"LARGE","EPOCH":"2021-11-11T14:29:34.796544","TIME_SYSTEM":"UTC","INCLINATION":"53.0544","MEAN_MOTION_DOT":"0.00000464","CENTER_NAME":"EARTH","ARG_OF_PERICENTER":"67.4898","MEAN_MOTION_DDOT":"0.0000000000000","MEAN_MOTION":"15.06403363","REF_FRAME":"TEME","RA_OF_ASC_NODE":"20.4151","SITE":"AFETR","ECCENTRICITY":"0.00017680","DECAY_DATE":null,"OBJECT_NAME":"STARLINK-2231"},{"LAUNCH_DATE":"2021-05-15","NORAD_CAT_ID":"48578","MEAN_ANOMALY":"291.4037","FILE":"3212485","CLASSIFICATION_TYPE":"U","OBJECT_ID":"2021-041AB","EPHEMERIS_TYPE":"0","TLE_LINE1":"1 48578U 21041AB  21315.65083225  .00002641  00000-0  19607-3 0  9992","GP_ID":"189528679","OBJECT_TYPE":"PAYLOAD","MEAN_ELEMENT_THEORY":"SGP4","BSTAR":"0.00019607000000","PERIAPSIS":"546.322","TLE_LINE2":"2 48578  53.0577  20.1905 0001268  68.7088 291.4037 15.06404402 27205","COUNTRY_CODE":"US","RCS_SIZE":"LARGE","EPOCH":"2021-11-11T15:37:11.906400","INCLINATION":"53.0577","TIME_SYSTEM":"UTC","PERIOD":"95.592","SEMIMAJOR_AXIS":"6925.335","ELEMENT_SET_NO":"999","APOAPSIS":"548.078","REV_AT_EPOCH":"2720","ARG_OF_PERICENTER":"68.7088","MEAN_MOTION_DDOT":"0.0000000000000","REF_FRAME":"TEME","MEAN_MOTION":"15.06404402","SITE":"AFETR","RA_OF_ASC_NODE":"20.1905","ECCENTRICITY":"0.00012680","DECAY_DATE":null,"OBJECT_NAME":"STARLINK-2232","MEAN_MOTION_DOT":"0.00002641","CENTER_NAME":"EARTH"},{"SEMIMAJOR_AXIS":"6925.356","ELEMENT_SET_NO":"999","APOAPSIS":"548.169","REV_AT_EPOCH":"2720","PERIOD":"95.592","INCLINATION":"53.0568","TIME_SYSTEM":"UTC","RCS_SIZE":"LARGE","EPOCH":"2021-11-11T15:49:10.344864","MEAN_MOTION_DOT":"-0.00000902","CENTER_NAME":"EARTH","OBJECT_NAME":"STARLINK-2233","DECAY_DATE":null,"ECCENTRICITY":"0.00013690","ARG_OF_PERICENTER":"66.7631","MEAN_MOTION_DDOT":"0.0000000000000","REF_FRAME":"TEME","MEAN_MOTION":"15.06397443","SITE":"AFETR","RA_OF_ASC_NODE":"20.1631","OBJECT_ID":"2021-041AC","EPHEMERIS_TYPE":"0","NORAD_CAT_ID":"48579","MEAN_ANOMALY":"293.3502","FILE":"3212485","CLASSIFICATION_TYPE":"U","LAUNCH_DATE":"2021-05-15","COUNTRY_CODE":"US","BSTAR":"-0.00004169800000","MEAN_ELEMENT_THEORY":"SGP4","PERIAPSIS":"546.273","TLE_LINE2":"2 48579  53.0568  20.1631 0001369  66.7631 293.3502 15.06397443 27200","OBJECT_TYPE":"PAYLOAD","TLE_LINE1":"1 48579U 21041AC  21315.65914751 -.00000902  00000-0 -41698-4 0  9996","GP_ID":"189528445"},{"TLE_LINE1":"1 48580U 21041AD  21315.91667824  .00025412  00000-0  17199-2 0  9991","GP_ID":"189528562","OBJECT_TYPE":"PAYLOAD","MEAN_ELEMENT_THEORY":"SGP4","BSTAR":"0.00171990000000","PERIAPSIS":"546.037","TLE_LINE2":"2 48580  53.0557 354.0032 0001810  40.2621  99.8333 15.06374923  3585","COUNTRY_CODE":"US","LAUNCH_DATE":"2021-05-15","NORAD_CAT_ID":"48580","MEAN_ANOMALY":"99.8333","FILE":"3212485","CLASSIFICATION_TYPE":"U","OBJECT_ID":"2021-041AD","EPHEMERIS_TYPE":"0","ARG_OF_PERICENTER":"40.2621","MEAN_MOTION_DDOT":"0.0000000000000","MEAN_MOTION":"15.06374923","REF_FRAME":"TEME","SITE":"AFETR","RA_OF_ASC_NODE":"354.0032","OBJECT_NAME":"STARLINK-2234","DECAY_DATE":null,"ECCENTRICITY":"0.00018100","MEAN_MOTION_DOT":"0.00025412","CENTER_NAME":"EARTH","RCS_SIZE":"LARGE","EPOCH":"2021-11-11T22:00:00.999936","INCLINATION":"53.0557","TIME_SYSTEM":"UTC","PERIOD":"95.594","SEMIMAJOR_AXIS":"6925.425","ELEMENT_SET_NO":"999","REV_AT_EPOCH":"358","APOAPSIS":"548.544"},{"MEAN_MOTION_DOT":"0.00033575","CENTER_NAME":"EARTH","MEAN_MOTION_DDOT":"0.0000000000000","ARG_OF_PERICENTER":"12.7459","REF_FRAME":"TEME","MEAN_MOTION":"15.42126612","RA_OF_ASC_NODE":"347.3061","SITE":"AFETR","DECAY_DATE":null,"OBJECT_NAME":"STARLINK-2235","ECCENTRICITY":"0.00031970","PERIOD":"93.378","SEMIMAJOR_AXIS":"6817.971","ELEMENT_SET_NO":"999","APOAPSIS":"442.016","REV_AT_EPOCH":"363","RCS_SIZE":"LARGE","EPOCH":"2021-11-11T22:00:00.999936","TIME_SYSTEM":"UTC","INCLINATION":"53.0547","MEAN_ELEMENT_THEORY":"SGP4","BSTAR":"0.00077834000000","PERIAPSIS":"437.656","TLE_LINE2":"2 48581  53.0547 347.3061 0003197  12.7459 327.4792 15.42126612  3630","COUNTRY_CODE":"US","TLE_LINE1":"1 48581U 21041AE  21315.91667824  .00033575  00000-0  77834-3 0  9994","GP_ID":"189527978","OBJECT_TYPE":"PAYLOAD","NORAD_CAT_ID":"48581","MEAN_ANOMALY":"327.4792","FILE":"3212485","CLASSIFICATION_TYPE":"U","OBJECT_ID":"2021-041AE","EPHEMERIS_TYPE":"0","LAUNCH_DATE":"2021-05-15"}];
